SiteSystem_Name,SiteSystem_Description,SiteSystem_HoursOfOperation,SiteAddressus_SiteAddressus_address_1,SiteAddressus_SiteAddressus_address_2,SiteAddressus_SiteAddressus_city,SiteAddressus_SiteAddressus_county,SiteAddressus_SiteAddressus_state,SiteAddressus_SiteAddressus_zip,SiteAddressus_SiteAddressus_country,SiteAddressus_SiteAddressus_notes,SiteAddressus_SiteAddressus_latitude,SiteAddressus_SiteAddressus_longitude,SiteSystem_Websiteurl,SiteCustom_Phone1,SiteCustom_Phone1Type
Catholic Charities Indianapolis,"A faith-based organization ""working with individuals, families and communities to help them meet their needs, overcome obstacles, eliminate oppression, and build a just and compassionate society.""",Mon-Thurs 8:30am-5pm,1400 North Meridian Street,,Indianapolis,Marion,IN,46202,US,14th and Meridian Streets,39.786231,-86.1581999,www.helpcreatehope.org,317-236-1500,
A Caring Place,"The location of an adult day services program operated by Catholic Charities, a faith-based nonprofit agency.",Mon-Fri 7:30am-5:30pm,4609 NORTH CAPITOL AVENUE,,INDIANAPOLIS,MARION,IN,46208,US,,39.8398156,-86.1609483,www.helpcreatehope.org,317-466-0015,
Catholic Charities - Caregiver Support Services,"The location of a caregiver support group provided by Catholic Charities of Indianapolis, a faith-based nonprofit organization.",Monthly 3rd Mon 5:30pm,541 EAST EDGEWOOD AVENUE,Saint Mark Catholic School,INDIANAPOLIS,MARION,IN,46227,US,,39.6787302,-86.1470606,www.helpcreatehope.org,317-261-3378,
Catholic Charities Crisis,"A faith-based organization ""working with individuals, families and communities to help them meet their needs, overcome obstacles, eliminate oppression, and build a just and compassionate society.""",Mon 1pm-2 pm and 5pm-6pm; Tues-Thurs 10am-11am and 1pm-2pm,1435 NORTH ILLINOIS STREET,,INDIANAPOLIS,MARION,IN,46202,US,Corner of 14th & Illinois.,39.7865465,-86.1590802,www.helpcreatehope.org,317-236-1512,
Holy Family Shelter,"A homeless family shelter operated by Catholic Charities, a faith-based nonprofit organization.",Daily 8am-8pm,907 NORTH HOLMES AVENUE,,INDIANAPOLIS,MARION,IN,46222,US,,39.7790928,-86.2049695,www.holyfamilyshelter.net,317-635-7830,x 5
Saint Elizabeth/Coleman,"An international adoption placement agency under the direction of Catholic Charities, a faith-based nonprofit organization.",Mon-Fri 9:30am-4:30pm,2500 CHURCHMAN AVENUE,,INDIANAPOLIS,MARION,IN,46203,US,,39.7331756,-86.1155765,www.givingbirthtohope.org,317-787-3412,
Catholic Charities - Education Center,"The location of citizenship classes provided by Catholic Charities, a faith-based nonprofit agency.",Mon-Thurs 8:30am-5:30pm,8228 MADISON AVENUE,,INDIANAPOLIS,MARION,IN,46227,US,,39.6462409,-86.1211102,www.helpcreatehope.org,317-236-1526,
Catholic Charities  - Caregiver Support Services,"The location of a caregiver support group provided by Catholic Charities of Indianapolis, a faith-based nonprofit organization.",Monthly 4th Thur 5:30pm,1100 WEST 42ND STREET,Indiana Interchurch Center,INDIANAPOLIS,MARION,IN,46208,US,,39.8301237,-86.1823677,www.helpcreatehope.org,317-466-0015,
Westminster Neighborhood Services - State Avenue,,,445 NORTH STATE AVENUE,,INDIANAPOLIS,MARION,IN,46201,US,,39.7732259,-86.1303243,www.westmin.org,,
Westminster Neighborhood Services - New York Street,"A faith-based, non-profit agency providing youth and adult programs on the near east side of Indianapolis with the following mission: ""Facilitating God's transformation of the Westminster neighborhood.""",,2325 EAST NEW YORK STREET,,INDIANAPOLIS,MARION,IN,46201,US,,39.771414,-86.122142,www.westmin.org,,
WHEELER MISSION MINISTRIES,"A non-denominational, Christian social services organization that provides goods and services to the homeless, poor, and needy.",,205 East New York Street,,Indianapolis,Marion,IN,46204,US,,39.7710273,-86.1539126,www.wheelermission.org,317-635-3575,Administrative Office
Wheeler Mission Thrift Store,"A thrift store operated by a non-denominational, Christian social services organization that provides goods and services to the homeless, poor, and needy.",,2730 MADISON AVENUE,,INDIANAPOLIS,MARION,IN,46225,US,,39.7265307,-86.1527995,www.wheelermission.org/our-work/work-enterprises,317-791-9186,
Wheeler Mission Center For Women And Children,"A women's shelter operated by a non-denominational, Christian social services organization that provides goods and services to the homeless, poor, and needy.",,3208 EAST MICHIGAN STREET,,INDIANAPOLIS,MARION,IN,46201,US,,39.774885,-86.1104045,www.wheelermission.org,317-687-3630,
Wheeler Mission Men's Residential Center,"A residential substance-abuse location for men operated by a non-denominational, Christian social services organization that provides goods and services to the homeless, poor, and needy.",,245 NORTH DELAWARE STREET,,INDIANAPOLIS,MARION,IN,46204,US,,39.7709275,-86.1539324,www.wheelermission.org,317-636-2720,
Wheeler Mission Shelter For Men,"The location of a men's homeless shelter operated by a non-denominational, Christian social services organization that provides goods and services to the homeless, poor, and needy.",,520 EAST MARKET STREET,,INDIANAPOLIS,MARION,IN,46204,US,,39.7685876,-86.1481878,www.wheelermission.org,317-687-6795,Ext. 1
Central Christian Church,A church that operates Christian outreach programs including food and clothing pantries.,,701 NORTH DELAWARE STREET,,INDIANAPOLIS,MARION,IN,46204,US,,39.7768808,-86.153515,www.indyccc.org,317-635-6397,
Chapel Rock Christian Church,,,2020 North Girls School Road,,Indianapolis,Marion,IN,46214,US,,39.7928895,-86.290953,www.chapelrock.org,,
Scott United Methodist Church,"A church that offers community outreach including a soup kitchen, youth group, and suicide support group.",Tues-Thurs noon-5pm,2153 DOCTOR ANDREW J BROWN AVENUE,,INDIANAPOLIS,MARION,IN,46202,US,,39.7975638,-86.1351458,www.scottumet.org,317-925-1997,
Christ Church Cathedral,"A church with worship services and charitable outreach, including a weekly meal and limited financial assistance.",Tues-Fri 11am-4pm,125 MONUMENT CIRCLE,,INDIANAPOLIS,MARION,IN,46204,US,,39.7692971,-86.1574902,www.cccindy.org,317-636-4577,
Jewish Family Services at The Albert and Sara Reuben Senior and Community Resource Center,"A nonprofit organization offering immigrant and refugee services including food, homemaker assistance, transportation, and referrals to seniors.",Mon-Thurs 8:30am-5pm; Fri 8:30am-3pm,6905 HOOVER ROAD,,INDIANAPOLIS,MARION,IN,46260,US,,39.8807074,-86.1738447,www.jfgi.org,317-259-6822,
Christ Church Apostolic,,,6601 North Grandview Drive,,Indianapolis,Marion,IN,46260,US,,39.8776169,-86.1867136,www.ccaindy.org,,
Promise Land Christian Community Church,,,802 Edgemont Avenue,,Indianapolis,Marion,IN,46208,US,,39.8022134,-86.1737939,,,
Christamore House Family And Community Center,,,502 NORTH TREMONT STREET,,INDIANAPOLIS,MARION,IN,46222,US,,39.7753796,-86.2013808,www.christamorehouse.org,,
Christamore Court Apartments,,,2330 WEST MICHIGAN STREET,,INDIANAPOLIS,MARION,IN,46222,US,,39.7750462,-86.2004022,www.christamorehouse.org,,
Linwood Christian Church,,,4424 EAST MICHIGAN STREET,,INDIANAPOLIS,MARION,IN,46201,US,,39.7750296,-86.0931342,www.linwoodchristian.org,,
Christ United Methodist Church,A  church with worship services and outreach ministries including a food pantry.,Mon-Thurs 8:30am-4pm,8540 U.S. 31,,INDIANAPOLIS,MARION,IN,46227,US,,39.6417474,-86.1320607,www.cumc-indy.net,317-882-1549,
God's Bounty Food Pantry,"A church offering worship services and charitable outreach programs, including a food pantry.",Vary,8946 SOUTHEASTERN AVENUE,,INDIANAPOLIS,MARION,IN,46239,US,,39.703495,-86.0072719,www.godsbounty.org,317-210-3663,
Tuxedo Park Baptist Church,"A church providing worship services and charitable outreach, including a hot meal and food and clothing pantry.",Mon-Thurs 10am-3pm,29 NORTH GRANT AVENUE,,INDIANAPOLIS,MARION,IN,46201,US,One block north of East Washington St. and east of Sherman Dr.,39.7704995,-86.0970345,,,
Divine Direction Christian Church,"A church with worship services and charitable outreach, including a food pantry.",,1733 EAST 46TH STREET,,INDIANAPOLIS,MARION,IN,46205,US,,39.839886,-86.1303735,www.divinedirectioncc.org,317-749-8741,Food Pantry
Lutheran Child And Family Services,,,1525 North Ritter Avenue,,Indianapolis,Marion,IN,46219,US,,39.7881637,-86.0727437,www.lutheranfamily.org,,
Sharing Place,,,6501 SUNNYSIDE ROAD,,INDIANAPOLIS,MARION,IN,46236,US,,39.8773425,-85.971502,www.lutheranfamily.org,,
Eagle Creek Community Church,"A church offering worship services and charitable outreach programs, including a food pantry.",Vary,5943 LAFAYETTE ROAD,,INDIANAPOLIS,MARION,IN,46254,US,,39.8619568,-86.270335,www.eaglecreekchurch.org,317-291-9619,
Salvation Army Eagle Creek Corps,,,4400 North High School Road,,Indianapolis,Marion,IN,46254,US,,39.8336015,-86.2710092,www.saeaglecreek.org,,
Salvation Army Fountain Square Corps,,Mon-Fri 10am-4pm,1337 SHELBY STREET,,INDIANAPOLIS,MARION,IN,46203,US,,39.7491223,-86.1393212,www.corps.salvationarmyindiana.org,317-632-0156,
Hope and Help Center,"A faith-based organization with charitable outreach, including a food pantry for area persons in need.",Vary,50 SOUTH PARKER AVENUE,Seal Products Building,INDIANAPOLIS,MARION,IN,46201,US,Enter south gate; follow signs,39.7671368,-86.1142239,,909-703-5167,
Hope and Help Center - Community Church,"A faith-based organization with charitable outreach, including a food pantry for area persons in need.",Vary,3332 East English Avenue,Seal Product Building,Indianapolis,Marion,IN,46201,US,,39.7599585,-86.1081431,,909-703-5167,
Community Caring And Sharing,,,2830 South Holt Road,,Indianapolis,Marion,IN,46241,US,,39.7232989,-86.2260528,www.ccsharing.org,,
Lakeview Church,"A church with worship services and charitable outreach, including a food pantry.",Mon-Thurs 9am-noon and 1pm-5pm,47 BEACHWAY DRIVE,,INDIANAPOLIS,MARION,IN,46224,US,,39.7666254,-86.2642663,www.lakeviewchurch.org,317-243-9396,
Ebenezer Baptist Church,"A church with worship services and charitable outreach, including a food pantry.",Tues and Thurs 9am-1pm; Wed 10am-2pm,1901 NORTH HARDING STREET,,INDIANAPOLIS,MARION,IN,46202,US,,39.7932489,-86.1869762,www.ebenezerchurchindy.org,317-631-5946,
Ebenezer Baptist Church - Rainbow House Food Pantry,"A church with worship services and charitable outreach, including a food pantry.",Thurs 9am-noon,1866 NORTH DEXTER STREET,,INDIANAPOLIS,MARION,IN,46202,US,,39.7929715,-86.1864796,www.ebenezerchurchindy.org,317-916-9952,
CICOA Neighborhood Meal Sites,"The goal of CICOA's Meals & More program is to provide appetizing, nutritionally balanced meals to older adults and those with disabilities either in their homes or at one of more than 30 neighborhood meal sites.  The program is designed to relieve hunger and food insecurity, promote socialization and address proper nutrition education. This program serves Boone, Hamilton, Hancock, Hendricks, Johnson, Marion, Morgan, and Shelby County.",Reservation Line: Mon-Fri 8am-4:30pm,8440 WOODFIELD CROSSING BOULEVARD,Suite 175,INDIANAPOLIS,MARION,IN,46240,US,,39.909591,-86.1215038,www.cicoa.org,,
John J. Barton Annex,"The goal of CICOA's Meals & More program is to provide appetizing, nutritionally balanced meals to older adults and those with disabilities either in their homes or at one of more than 30 neighborhood meal sites.  The program is designed to relieve hunger and food insecurity, promote socialization and address proper nutrition education. This program serves Boone, Hamilton, Hancock, Hendricks, Johnson, Marion, Morgan, and Shelby County.",Reservation Line: Mon-Fri 8am-4:30pm,501 North East Street,,Indianapolis,Marion,IN,46204,US,,39.7751885,-86.1486997,www.cicoa.org,,
Carriage House Of Glendale,"The goal of CICOA's Meals & More program is to provide appetizing, nutritionally balanced meals to older adults and those with disabilities either in their homes or at one of more than 30 neighborhood meal sites.  The program is designed to relieve hunger and food insecurity, promote socialization and address proper nutrition education. This program serves Boone, Hamilton, Hancock, Hendricks, Johnson, Marion, Morgan, and Shelby County.",Reservation Line: Mon-Fri 8am-4:30pm,"2520 Tacoma Circle, Building 3",,Indianapolis,Marion,IN,46220,US,,39.8727311,-86.1204542,www.cicoa.org,,
Bethany Village,"The goal of CICOA's Meals & More program is to provide appetizing, nutritionally balanced meals to older adults and those with disabilities either in their homes or at one of more than 30 neighborhood meal sites.  The program is designed to relieve hunger and food insecurity, promote socialization and address proper nutrition education. This program serves Boone, Hamilton, Hancock, Hendricks, Johnson, Marion, Morgan, and Shelby County.",Reservation Line: Mon-Fri 8am-4:30pm,3554 South Shelby Street,,Indianapolis,Marion,IN,46227,US,,39.7141248,-86.1400767,www.cicoa.org/services/meals-more.html,,
Green Park Terrace,"The goal of CICOA's Meals & More program is to provide appetizing, nutritionally balanced meals to older adults and those with disabilities either in their homes or at one of more than 30 neighborhood meal sites.  The program is designed to relieve hunger and food insecurity, promote socialization and address proper nutrition education. This program serves Boone, Hamilton, Hancock, Hendricks, Johnson, Marion, Morgan, and Shelby County.",Reservation Line: Mon-Fri 8am-4:30pm,110 East Meridian School Road,,Indianapolis,Marion,IN,46227,US,,39.6507094,-86.1562792,www.cicoa.org,,
Mount Zion Suburban,"The goal of CICOA's Meals & More program is to provide appetizing, nutritionally balanced meals to older adults and those with disabilities either in their homes or at one of more than 30 neighborhood meal sites.  The program is designed to relieve hunger and food insecurity, promote socialization and address proper nutrition education. This program serves Boone, Hamilton, Hancock, Hendricks, Johnson, Marion, Morgan, and Shelby County.",Reservation Line: Mon-Fri 8am-4:30pm,5260 North Michigan Road,,Indianapolis,Marion,IN,46228,US,,39.8481692,-86.192302,www.cicoa.org,,
AHEPA National Housing Corporation,"The goal of CICOA's Meals & More program is to provide appetizing, nutritionally balanced meals to older adults and those with disabilities either in their homes or at one of more than 30 neighborhood meal sites.  The program is designed to relieve hunger and food insecurity, promote socialization and address proper nutrition education. This program serves Boone, Hamilton, Hancock, Hendricks, Johnson, Marion, Morgan, and Shelby County.",Reservation Line: Mon-Fri 8am-4:30pm,7355 Shadeland Station Way,,Indianapolis,Marion,IN,46256,US,,39.8877496,-86.0409699,www.cicoa.org,,
Nora Commons On The Monon,"The goal of CICOA's Meals & More program is to provide appetizing, nutritionally balanced meals to older adults and those with disabilities either in their homes or at one of more than 30 neighborhood meal sites.  The program is designed to relieve hunger and food insecurity, promote socialization and address proper nutrition education. This program serves Boone, Hamilton, Hancock, Hendricks, Johnson, Marion, Morgan, and Shelby County.",Reservation Line: Mon-Fri 8am-4:30pm,8905 Evergreen Avenue,,Indianapolis,Marion,IN,46240,US,,39.9170214,-86.1375715,www.cicoa.org,,
Crooked Creek Tower,"The goal of CICOA's Meals & More program is to provide appetizing, nutritionally balanced meals to older adults and those with disabilities either in their homes or at one of more than 30 neighborhood meal sites.  The program is designed to relieve hunger and food insecurity, promote socialization and address proper nutrition education. This program serves Boone, Hamilton, Hancock, Hendricks, Johnson, Marion, Morgan, and Shelby County.",Reservation Line: Mon-Fri 8am-4:30pm,7988 North Michigan Road,,Indianapolis,Marion,IN,46268,US,,39.89934,-86.217731,www.cicoa.org,,
Cambridge Square Of Beech Grove,"The goal of CICOA's Meals & More program is to provide appetizing, nutritionally balanced meals to older adults and those with disabilities either in their homes or at one of more than 30 neighborhood meal sites.  The program is designed to relieve hunger and food insecurity, promote socialization and address proper nutrition education. This program serves Boone, Hamilton, Hancock, Hendricks, Johnson, Marion, Morgan, and Shelby County.",Reservation Line: Mon-Fri 8am-4:30pm,331 East Churchman Place,,Beech Grove,Marion,IN,46107,US,,39.7162989,-86.0807156,www.cicoa.org,,
Indiana Avenue Apartments,"The goal of CICOA's Meals & More program is to provide appetizing, nutritionally balanced meals to older adults and those with disabilities either in their homes or at one of more than 30 neighborhood meal sites.  The program is designed to relieve hunger and food insecurity, promote socialization and address proper nutrition education. This program serves Boone, Hamilton, Hancock, Hendricks, Johnson, Marion, Morgan, and Shelby County.",Reservation Line: Mon-Fri 8am-4:30pm,825 Indiana Avenue,,Indianapolis,Marion,IN,46202,US,,39.7790133,-86.1718777,www.cicoa.org,,
Lugar Towers,"The goal of CICOA's Meals & More program is to provide appetizing, nutritionally balanced meals to older adults and those with disabilities either in their homes or at one of more than 30 neighborhood meal sites.  The program is designed to relieve hunger and food insecurity, promote socialization and address proper nutrition education. This program serves Boone, Hamilton, Hancock, Hendricks, Johnson, Marion, Morgan, and Shelby County.",Reservation Line: Mon-Fri 8am-4:30pm,901 Fort Wayne Avenue,,Indianapolis,Marion,IN,46202,US,,39.7791653,-86.1496986,www.cicoa.org,,
Stetson Senior Apartments,"The goal of CICOA's Meals & More program is to provide appetizing, nutritionally balanced meals to older adults and those with disabilities either in their homes or at one of more than 30 neighborhood meal sites.  The program is designed to relieve hunger and food insecurity, promote socialization and address proper nutrition education. This program serves Boone, Hamilton, Hancock, Hendricks, Johnson, Marion, Morgan, and Shelby County.",Reservation Line: Mon-Fri 8am-4:30pm,703 East 30th Street,,Indianapolis,Marion,IN,46205,US,,39.809769,-86.1444269,www.cicoa.org,,
Crawford Manor,"The goal of CICOA's Meals & More program is to provide appetizing, nutritionally balanced meals to older adults and those with disabilities either in their homes or at one of more than 30 neighborhood meal sites.  The program is designed to relieve hunger and food insecurity, promote socialization and address proper nutrition education. This program serves Boone, Hamilton, Hancock, Hendricks, Johnson, Marion, Morgan, and Shelby County.",Reservation Line: Mon-Fri 8am-4:30pm,9940 Hoosier Village Drive,,Indianapolis,Marion,IN,46268,US,,39.9308568,-86.2528806,www.cicoa.org,,
John H. Boner Community Center,"The goal of CICOA's Meals & More program is to provide appetizing, nutritionally balanced meals to older adults and those with disabilities either in their homes or at one of more than 30 neighborhood meal sites.  The program is designed to relieve hunger and food insecurity, promote socialization and address proper nutrition education. This program serves Boone, Hamilton, Hancock, Hendricks, Johnson, Marion, Morgan, and Shelby County.",Reservation Line: Mon-Fri 8am-4:30pm,2236 East 10th Street,,Indianapolis,Marion,IN,46201,US,,39.7814828,-86.1232072,www.cicoa.org,,
Community Alliance of The Far Eastside,"The goal of CICOA's Meals & More program is to provide appetizing, nutritionally balanced meals to older adults and those with disabilities either in their homes or at one of more than 30 neighborhood meal sites.  The program is designed to relieve hunger and food insecurity, promote socialization and address proper nutrition education. This program serves Boone, Hamilton, Hancock, Hendricks, Johnson, Marion, Morgan, and Shelby County.",Reservation Line: Mon-Fri 8am-4:30pm,8902 East 38th Street,,Indianapolis,Marion,IN,46226,US,,39.8274166,-86.0117389,www.cicoa.org,,
Perry Senior Citizens Services,"The goal of CICOA's Meals & More program is to provide appetizing, nutritionally balanced meals to older adults and those with disabilities either in their homes or at one of more than 30 neighborhood meal sites.  The program is designed to relieve hunger and food insecurity, promote socialization and address proper nutrition education. This program serves Boone, Hamilton, Hancock, Hendricks, Johnson, Marion, Morgan, and Shelby County.",Reservation Line: Mon-Fri 8am-4:30pm,6901 Derbyshire Road,,Indianapolis,Marion,IN,46227,US,,39.6659226,-86.120748,www.cicoa.org,,
Eldersource Of Greater Indianapolis - Libby Fogle Lunch Bunch,"The goal of CICOA's Meals & More program is to provide appetizing, nutritionally balanced meals to older adults and those with disabilities either in their homes or at one of more than 30 neighborhood meal sites.  The program is designed to relieve hunger and food insecurity, promote socialization and address proper nutrition education. This program serves Boone, Hamilton, Hancock, Hendricks, Johnson, Marion, Morgan, and Shelby County.",Reservation Line: Mon-Fri 8am-4:30pm,6701 Hoover Road,,Indianapolis,Marion,IN,46260,US,,39.8797566,-86.1728291,www.cicoa.org,,
Irvington Churches Advocacy Network - Downey Avenue Christian Church,,,111 South Downey Avenue,,Indianapolis,Marion,IN,46219,US,,39.7685259,-86.0763528,www.downeyavenue.com,,
Irvington Churches Advocacy Network - Emerson Avenue Baptist Church,,,308 North Emerson Avenue,,Indianapolis,Marion,IN,46219,US,,39.7726941,-86.0834221,,,
"Nu Corinthian Baptist Church - Inner City Ministry, Sanctity Of Salvation",,,2700 North College Avenue,,Indianapolis,Marion,IN,46205,US,,39.805587,-86.1451463,www.nucorinthianbaptistchurch.org,,
Light Of The World Christian Church,,Mon 6pm-7:30pm,4646 NORTH MICHIGAN ROAD,,INDIANAPOLIS,MARION,IN,46228,US,,39.8404244,-86.1899726,www.lightoftheworld.org,317-254-5922,
Chapel Hill United Methodist Church,,,963 North Girls School Road,,Indianapolis,Marion,IN,46214,US,,39.7778138,-86.2885305,www.chapelhillumc.com,,
Hoosier Veterans Assistance Foundation,,,964 North Pennsylvania Street,,Indianapolis,Marion,IN,46204,US,,39.780988,-86.1562182,www.hvaf.org,,
Turning Point Family Worship Center,,,4501 North Post Road,,Indianapolis,Marion,IN,46226,US,,39.8393968,-86.0087644,www.turningpointfwc.com,,
Turning Point Family Worship Center - Food And Clothing Pantry,,,4554 North Post Road,,Indianapolis,Marion,IN,46226,US,,39.840379,-86.010588,http://turningpointfwc.com,,
Fay Biccard Glick Neighborhood Center At Crooked Creek,,,2990 West 71st Street,,Indianapolis,Marion,IN,46268,US,,39.884754,-86.211578,www.faybiccardglickcenter.org,,
Cornerstone Family Worship Center,A church with worship services and charitable outreach including a food pantry.,Tues and Wed 10am-noon,431 SOUTH SHORTRIDGE ROAD,,INDIANAPOLIS,MARION,IN,46219,US,,39.7629741,-86.0396523,www.cornerstoneindy.net,317-353-8377,
Galilee Missionary Baptist Church,"A church with worship services and charitable outreach, including a food pantry.",Mon 11:30am-1:30pm,2624 EAST 25TH STREET,,INDIANAPOLIS,MARION,IN,46218,US,,39.8036899,-86.1186887,,317-925-6851,
Miracles And Blessings,"A church with worship services and charitable outreach, including a food pantry.",,4062 EAST 34TH STREET,,INDIANAPOLIS,MARION,IN,46218,US,,39.8184989,-86.0982284,,,
Broad Ripple United Methodist Church,,,6185 Guilford Avenue,,Indianapolis,Marion,IN,46220,US,,39.8680593,-86.1426487,www.broadrippleumc.org,,
Mary Rigg Neighborhood Center,,,1920 West Morris Street,,Indianapolis,Marion,IN,46221,US,,39.7514152,-86.1950841,www.maryrigg.org,,
Phillips Temple Christian Methodist Episcopal Church,A church with worship services and charitable outreach including a community meal and clothing program.,Vary,210 EAST 34TH STREET,,INDIANAPOLIS,MARION,IN,46205,US,,39.8179879,-86.1527905,www.phillipstemplecmeindy.org,317-925-2000,
Greater Saint Mark Missionary Baptist Church,,,5502 East 38th Street,,Indianapolis,Marion,IN,46218,US,,39.82683,-86.073317,www.gsmmbc.com,,
Westside Episcopal Ministry Center,"A church with worship services and charitable outreach, including a food pantry.",Mon-Fri noon-3pm,5625 WEST 30TH STREET,,SPEEDWAY,MARION,IN,46224,US,,39.8085512,-86.2599424,,317-293-0372,
New Wineskin Ministries,"A church offering worship services and charitable outreach programs, including a food pantry.",Tues-Fri 10am-3pm,4501 38TH STREET,,INDIANAPOLIS,MARION,IN,46254,US,,39.8226578,-86.235909,www.nwmcentral.com,317-328-1800,
Glendale Seventh-Day Adventist Church,"A church with worship services and charitable outreach, including a food pantry.",Mon-Thurs noon-4pm,2900 EAST 62ND STREET,,INDIANAPOLIS,MARION,IN,46220,US,,39.8692587,-86.1158947,https://glendalesda.org/,317-253-3711,
Edna Martin Christian Center,"A nonprofit agency with a mission to, ""bridge cultural, racial, and economic differences in order to support and nurture the people in the community by providing holistic programs that empower, encourage, and engender a vision of hope.",Mon-Fri 9am-5pm,2605 EAST 25TH STREET,,INDIANAPOLIS,MARION,IN,46218,US,,39.8030561,-86.1190333,www.ednamartincc.org,317-637-3776,
Servant's Heart Of Indy,"A faith-based organization providing community outreach, including a food pantry.",Thurs 6:30pm-9pm; Sat 9am-2pm,"5602 ELMWOOD AVENUE, SUITE 212",,INDIANAPOLIS,MARION,IN,46203,US,,39.7066078,-86.0718595,www.servantsheartofindy.org,317-788-9433,
Jesus Inside Prison Ministry,,,1634 East Minnesota Street,,Indianapolis,Marion,IN,46203,US,,39.745287,-86.1314552,www.jipm.org,,
Metro Baptist Center,"A church with worship services and charitable outreach, including a food pantry.",Mon-Fri 9am-3pm,952 NORTH PENNSYLVANIA STREET,,INDIANAPOLIS,MARION,IN,46204,US,900N & 100E near St. Joseph & Pennsylvania,39.7805033,-86.1561387,www.BaptistCenterIndy.com,317-687-0075,
Emmaus Lutheran Church,,,1224 Laurel Street,,Indianapolis,Marion,IN,46203,US,,39.7503367,-86.1356983,www.emmausfountainsquare.org,,
Emmaus Lutheran Church Food Pantry,,,1209 Linden Street,,Indianapolis,Marion,IN,46203,US,,39.7505808,-86.136637,www.emmausfountainsquare.org/food-pantry,,
Saint John The Evangelist,,Mon-Fri 9am-5pm,126 WEST GEORGIA STREET,,INDIANAPOLIS,MARION,IN,46225,US,,39.7648391,-86.1612266,www.stjohnsindy.com,,
Saints Peter And Paul Cathedral,A church providing outreach services including meals open to the public.,Mon-Fri 8:30am-5:30pm,1347 NORTH MERIDIAN STREET,,INDIANAPOLIS,MARION,IN,46202,US,,39.7853869,-86.1568144,www.ssppc.org,317-634-4519,
Cathedral Kitchen,A church providing outreach services including meals open to the public.,Vary,1350 NORTH PENNSYLVANIA STREET,Lower Level,INDIANAPOLIS,MARION,IN,46202,US,,39.7855969,-86.1561363,www.ssppc.org/hours-of-operation,317-632-4360,
"Faith, Hope And Love Community",,,"40 West 40th Street, Suite 223",,Indianapolis,Marion,IN,46208,US,,39.8286575,-86.1585634,www.fhlcommunity.org,,
Lirios De Los Valles,,,1805 West Wilkins Street,,Indianapolis,Marion,IN,46221,US,,39.7528349,-86.1922199,www.fhlcommunity.org,,
TREE OF LIFE CHRISTIAN MINISTRIES,,,3965 North Boulevard Place,,Indianapolis,Marion,IN,46208,US,,39.8281751,-86.1637148,www.fhlcommunity.org,,
Christ Bible Church,,,3363 North Central Avenue,,Indianapolis,Marion,IN,46205,US,,39.8174732,-86.1493805,www.fhlcommunity.org,,
"Faith, Hope And Love Community",,,40 West 40th Street,,Indianapolis,Marion,IN,46208,US,,39.8283034,-86.163991,www.fhlcommunity.org,,
Saint Luke Missionary Baptist Church,"A church with worship services and charitable outreach, including a food pantry.",Mon-Fri 8am-4pm,5325 EAST 30TH STREET,,INDIANAPOLIS,MARION,IN,46218,US,,39.8105092,-86.0766418,www.stlukeindy.org/,317-543-9505,
New Revelations Christian Church,,,6701 OAKLANDON ROAD,,INDIANAPOLIS,MARION,IN,46236,US,,39.8799138,-85.9557059,www.newrevelationcc.com,,
Roberts Park United Methodist Church,,,401 North Delaware Street,,Indianapolis,Marion,IN,46204,US,,39.773026,-86.1535945,www.robertsparkumc.org,,
First Free Methodist Church,"A church with worship services and charitable outreach, including a food pantry.",Mon-Thurs 9am-5pm,1215 Tecumseh Street,,Indianapolis,Marion,IN,46201,US,,39.7842971,-86.1258383,www.indyfirst.org,317-638-2628,
Vineyard Life Church,,,612 NORTH HIGH SCHOOL ROAD,,INDIANAPOLIS,MARION,IN,46214,US,,39.7751115,-86.2717613,www.vlindy.com,317-222-5510,
Mid-North Food Pantry,"A faith-based, nonprofit organization offering a community food pantry to select Indianapolis zip codes.","Mon, Wed, and Fri 9am-3pm",3333 NORTH MERIDIAN STREET,,INDIANAPOLIS,MARION,IN,46208,US,Food pantry is located in the basement.,39.81649,-86.1563061,www.midnorthfoodpantry.org,317-924-7900,
Fletcher Place Community Center,"""United Methodist Mission Agency seeking to break the cycle of poverty through the compassion of Jesus Christ.""",Mon-Fri 9am-4pm,1637 PROSPECT STREET,,INDIANAPOLIS,MARION,IN,46203,US,,39.7521929,-86.13082,www.fletcherplacecc.org,317-636-3466,
Resurrection Lutheran Church,A church offering regular worship services and providing community outreach including a hot meal.,,445 EAST STOP 11 ROAD,,INDIANAPOLIS,MARION,IN,46227,US,"Half mile north of County Line Road, between US 31 and SR 135 (Meridian St), at the intersection of Stop 11 Rd and Meridian School Road",39.6502476,-86.1506882,www.rlcindy.org,317-881-7854,
Eagle Creek Church Of Christ,"A church with worship services and charitable outreach, including a food pantry.",Sun 9:30am-7pm; Wed 7pm-9pm,3025 WEST 69TH STREET,,INDIANAPOLIS,MARION,IN,46268,US,,39.8800849,-86.2081067,,317-253-5530,
Crooked Creek Food Pantry,,,6940 North Michigan Road,,Indianapolis,Marion,IN,46268,US,,39.8816853,-86.2117875,www.crookedcreekfp.org,,
Second Presbyterian Church,A church providing community outreach including a food pantry.,Mon-Fri 8:30am-4:30pm,7700 NORTH MERIDIAN STREET,,INDIANAPOLIS,MARION,IN,46260,US,,39.895065,-86.1590175,www.secondchurch.org,317-253-6461,
Trinity Episcopal Church,"A church offering worship services and charitable outreach programs, including a community meal.",Mon-Fri 9am-4pm Summer Hours: Mon-Thurs 9am-4pm; Fri 9am-noon,3243 NORTH MERIDIAN STREET,,INDIANAPOLIS,MARION,IN,46208,US,,39.8152949,-86.156182,www.trinitychurchindy.org,317-926-1346,
Trinity Outreach Center,"A church offering worship services and charitable outreach programs, including a community meal.",Mon-Fri 9am-4pm Summer Hours: Mon-Thurs 9am-4pm; Fri 9am-noon,3333 NORTH MERIDIAN STREET,,INDIANAPOLIS,MARION,IN,46208,US,,39.81649,-86.1563061,www.trinitychurchindy.org,317-926-5066,
David S. Moore Food Pantry,A volunteer organization offering a community food pantry and clothing to people in need.,Vary,930 PROSPECT STREET,,INDIANAPOLIS,MARION,IN,46203,US,,39.7524528,-86.1421202,,317-731-2124,
Deliverance Temple,A church providing worship services and outreach ministries including a food pantry.,,8600 MEADOWLARK DRIVE,,INDIANAPOLIS,MARION,IN,46226,US,,39.8376915,-86.0154658,,317-895-9787,
Augusta Christian Church/Powerhouse International Ministries,,,3445 West 71st Street,,Indianapolis,Marion,IN,46268,US,,39.881054,-86.218266,www.powerhouseinternational.org,,
EASTERN STAR CHURCH,,,5750 East 30th Street,,Indianapolis,Marion,IN,46218,US,,39.8122628,-86.0696425,www.easternstarchurch.org,,
Eastern Star Care Center,,,5719 Massachusetts Avenue,,Indianapolis,Marion,IN,46218,US,,39.8158986,-86.0699443,www.easternstarchurch.org,,
Decatur Township Metropolitan School District,,,5275 Kentucky Avenue,,Indianapolis,Marion,IN,46221,US,,39.6864815,-86.2770771,www.decaturproud.org,,
Stephen Decatur Elementary School,,,3425 South Foltz Street,,Indianapolis,Marion,IN,46221,US,,39.7122024,-86.2289745,http://msddecatur.k12.in.us,,
Valley Mills Elementary,,,5101 South High School Road,,Indianapolis,Marion,IN,46221,US,,39.6894622,-86.2684825,http://msddecatur.k12.in.us,,
Blue/Gold Academy Elementary,,,5650 Mann Road,,Indianapolis,Marion,IN,46221,US,,39.6823993,-86.248207,http://msddecatur.k12.in.us,,
Lawrence Township Hunger Coalition,A nonprofit agency providing food to people in Lawrence Township of Marion County.,Wed 10am-4pm and 6pm-8pm; Fri 10am-4pm,7101 PENDLETON PIKE,,INDIANAPOLIS,MARION,IN,46226,US,,39.8276727,-86.044157,www.ecommunity.com/locations/community-cupboard-lawrence,317-355-7395,
Zion Tabernacle Apostolic Faith Church,"A church offering worship services and charitable outreach programs, including a food pantry.",Mon-Fri 10am-3pm,4007 NORTH SHERMAN DRIVE,,INDIANAPOLIS,MARION,IN,46226,US,,39.8294494,-86.1024811,www.ztac.org,317-545-1797,
Gleaners Food Bank Of Indiana,A nonprofit agency providing food to hunger-relief partners throughout the state and providing access to those in need.,,3737 WALDEMERE AVENUE,,INDIANAPOLIS,MARION,IN,46241,US,,39.7107011,-86.2605341,www.gleaners.org,317-925-0191,
Cynthia H. Hubert Community Cupboard At Gleaners Food Bank,A nonprofit agency providing food to hunger-relief partners throughout the state and providing access to those in need.,,3737 WALDEMERE AVENUE,,INDIANAPOLIS,MARION,IN,46241,US,"Waldemere Ave. is off west Hanna Ave, which is off of Kentucky Ave. Hanna Ave is between Lynhurst and 465. Pantry is located on the southwest side of the Gleaners Food Bank building",39.7107011,-86.2605341,www.gleaners.org,,
CARE Mobile Food Pantry - Michigan Street Kroger,A nonprofit agency providing food to hunger-relief partners throughout the state and providing access to those in need.,"June 4-Aug 20, 2019, Tues 4pm-6pm",2630 WEST MICHIGAN STREET,,INDIANAPOLIS,MARION,IN,46222,US,,39.7757034,-86.2045895,www.gleaners.org/programs/care-mobile-pantry,317-829-1800,Recorded Information
Care Mobile Food Pantry - Fervent Prayer Church,A nonprofit agency providing food to hunger-relief partners throughout the state and providing access to those in need.,"June 8-Aug 24, 2019 Sat 10am-noon",10512 EAST 38TH STREET,,INDIANAPOLIS,MARION,IN,46235,US,38th Street Between Mitthoeffer Road and German Church Road,39.8266098,-85.9812039,www.gleaners.org/programs/care-mobile-pantry,317-829-1800,Recorded Information
CARE Mobile Food Pantry - Save-A-Lot,A nonprofit agency providing food to hunger-relief partners throughout the state and providing access to those in need.,"June 5-Aug 21, 2019, Wed 4pm-6pm",3739 EAST WASHINGTON STREET,,INDIANAPOLIS,MARION,IN,46201,US,Washington Street and Sherman Drive,39.7671272,-86.103123,www.gleaners.org/programs/care-mobile-pantry,317-829-1800,Recorded Information
Care Mobile Food Pantry - Christ Our King Christian Church,A nonprofit agency providing food to hunger-relief partners throughout the state and providing access to those in need.,"June 6-Aug 22, 2019 Thurs 4pm-6pm",2701 NORTH CALIFORNIA STREET,,INDIANAPOLIS,MARION,IN,46208,US,West 27th and Dr. Martin Luther King Jr. St.,39.8054605,-86.1698907,www.gleaners.org/programs/care-mobile-pantry,317-829-1800,Recorded Information
Care Mobile Food Pantry - Mount Zion Apostolic Church,A nonprofit agency providing food to hunger-relief partners throughout the state and providing access to those in need.,"June 3-Aug 19, 2019, Mon 4pm-6pm",4900 EAST 38TH STREET,,INDIANAPOLIS,MARION,IN,46218,US,,39.826105,-86.0877391,www.gleaners.org/programs/care-mobile-pantry,,
CARE Mobile Food Pantry - North United Methodist Church,A nonprofit agency providing food to hunger-relief partners throughout the state and providing access to those in need.,"June 8-Aug 24, 2019, Sat 10am-noon",3808 NORTH MERIDIAN STREET,,INDIANAPOLIS,MARION,IN,46208,US,,39.8254194,-86.1577684,www.gleaners.org/programs/care-mobile-pantry,317-829-1800,Recorded Information
Northside Baptist Church,"A church with worship services and charitable outreach to the community, including a food pantry.",Mon-Fri 9:30am-5pm,3021 EAST 71ST STREET,,INDIANAPOLIS,MARION,IN,46220,US,,39.8823671,-86.1132293,www.northsideindy.org,317-255-6692,
Lynhurst Baptist Church Community Center,A faith-based agency providing outreach in the community including a food pantry.,Mon-Fri noon-6pm,709 SOUTH LYNHURST DRIVE,,INDIANAPOLIS,MARION,IN,46241,US,,39.7561645,-86.2495676,,,
Faith United Church of Christ,"A church offering worship services and charitable outreach programs, including a food pantry.",Mon-Thurs 9am-1pm,4040 THOMPSON ROAD,,INDIANAPOLIS,MARION,IN,46237,US,,39.6944371,-86.0973528,www.myfaithucc.org,317-784-4856,
Zion Hill Missionary Baptist Church,"A church with worship services and charitable outreach, including a food pantry.",Vary,1610 EAST 19TH STREET,,INDIANAPOLIS,MARION,IN,46218,US,,39.7925398,-86.1312358,www.zionhillmbc.org,317-631-1543,
Bethel Family Worship Center,,,24 SOUTH LYNHURST DRIVE,,INDIANAPOLIS,MARION,IN,46241,US,,39.763418,-86.251164,www.bfwc.net,317-244-5835,
Westside Church Of The Nazarene,,,8610 WEST 10TH STREET,,INDIANAPOLIS,MARION,IN,46234,US,,39.7798449,-86.3133501,,,
Capitol City Seventh-Day Adventist Church,"A church offering worship services and charitable outreach programs, including a food pantry.",Vary,1801 EAST 49TH STREET,,INDIANAPOLIS,MARION,IN,46205,US,,39.8426813,-86.1297712,www.capitolcity.lakeunion.org,317-251-1053,
Capitol City Seventh-Day Adventist Church - Food Pantry,"A church offering worship services and charitable outreach programs, including a food pantry.",Mon and Tues 10am-1pm,4731 KINGSLEY DRIVE,,INDIANAPOLIS,MARION,IN,46205,US,,39.8424525,-86.1300522,www.capitolcity.lakeunion.org,317-251-1053,
Mount Olive Missionary Baptist Church,,Mon-Fri 10am-2pm,1003 WEST 16TH STREET,,INDIANAPOLIS,MARION,IN,46202,US,,39.7878981,-86.1793878,www.jmeshackj1.wixsite.com/mtoliveindy,317-634-9178,
Fleming Garden Christian Church,"A church offering worship services and charitable outreach programs, including a food pantry.",Mon-Fri 9am-1pm,530 SOUTH TAFT AVENUE,,INDIANAPOLIS,MARION,IN,46241,US,,39.7583911,-86.2357266,www.fleminggardencc.org,317-244-8030,
First Church Of The Nazarene,"A church offering worship services and charitable outreach programs, including a food pantry.",Mon-Fri 9am-4pm,9401 EAST 25TH STREET,,INDIANAPOLIS,MARION,IN,46229,US,,39.8025605,-86.0017252,www.indynaz.org,317-897-7700,
Masjid Al Mumineen,,,4088 Millersville Road,,Indianapolis,Marion,IN,46205,US,,39.8303991,-86.120927,www.masjidmumineen.com,,
Barnes United Methodist Church,"A church with worship services and charitable outreach, including a food pantry.",Mon-Thurs 9am-5pm,900 WEST 30TH STREET,,INDIANAPOLIS,MARION,IN,46208,US,,39.8104579,-86.1765269,www.barnesumcindy.org,317-923-9197,
New Direction Church,"A church with worship services and charitable outreach, including a food pantry.",Mon-Fri 9am-5pm,5330 EAST 38TH STREET,,INDIANAPOLIS,MARION,IN,46218,US,,39.8260125,-86.0781672,www.ndcbetterlife.org,317-544-8622,
Wes Montgomery Park,"A church with worship services and charitable outreach, including a food pantry.",Mon-Fri 9am-5pm,3400 NORTH HAWTHORNE LANE,,INDIANAPOLIS,MARION,IN,46218,US,,39.8184318,-86.0784894,www.ndcbetterlife.org,317-544-8622,
Trinity Lutheran,,,8540 East 16th Street,,Indianapolis,Marion,IN,46219,US,,39.7908698,-86.0162407,www.trinityindy.org,,
New Vision Missionary Baptist Church,,,4501 Fletcher Avenue,,Indianapolis,Marion,IN,46203,US,,39.7581171,-86.0920994,,,
Mount Nebo Missionary Baptist Church,,,2325 HOVEY STREET,,INDIANAPOLIS,MARION,IN,46218,US,,39.8002659,-86.1318686,,317-924-2737,
"New Vision Ministries, Inc.",,,2056 East 32nd Street,,Indianapolis,Marion,IN,46218,US,,39.8146203,-86.1257462,www.nvminc.org,,
Helpers Helping Others Outreach Team (HHOOT),"A nonprofit agency offering support services, including hot meals and haircuts for veterans, ex-offenders, and people who are homeless.",Mon-Fri 8am-5pm,2457 EAST WASHINGTON STREET,Suite F,INDIANAPOLIS,MARION,IN,46201,US,,39.7672775,-86.1195604,www.indianahelpers.com,317-635-0500,
Helpers Helping Others Outreach Team,"A nonprofit agency offering support services, including hot meals and haircuts for veterans, ex-offenders, and people who are homeless.",Mon-Fri 8am-5pm,918 EAST MICHIGAN STREET,,INDIANAPOLIS,MARION,IN,46202,US,,39.7740323,-86.1412435,www.indianahelpers.com,317-635-0500,
Sunrise Missionary Baptist Church,"A church providing worship services and charitable outreach, including hot meals to people in need.",Vary,1831 BELLEFONTAINE STREET,,INDIANAPOLIS,MARION,IN,46202,US,,39.7920066,-86.1419853,www.sunrisebaptistindy.org,317-902-8529,
"National Christian Outreach, Compassion Center",Faith-based organization that provides a soup kitchen.,Vary,2616 SHELBY STREET,,INDIANAPOLIS,MARION,IN,46203,US,,39.7295033,-86.139829,,317-626-0387,
Cityview Christian Center,"A church providing charitable outreach, including meals to homeless men and women, at risk children and teens, and those struggling with substance abuse.",Vary; voicemail available,1090 WEST 23RD STREET,,INDIANAPOLIS,MARION,IN,46208,US,,39.800351,-86.1806195,www.indycityview.com,317-916-9907,
Walk By Faith Christian Ministries,,,3709 SHADELAND AVENUE,,INDIANAPOLIS,MARION,IN,46226,US,,39.8238459,-86.0449537,,,
One Body Ministries,"A church with worship services and charitable outreach, including a food pantry.",Vary,3132 CARSON AVENUE,,INDIANAPOLIS,MARION,IN,46227,US,,39.7206369,-86.134952,www.facebook.com/OneBodyMinistriesInc,317-786-4316,
One Body Ministries Pantry,"A church with worship services and charitable outreach, including a food pantry.","Monthly 4th Mon 6pm-8pm       * Except in Nov and Dec, open Monthly 3rd Mon 6pm-8pm",1238 SOUTH PERRY STREET,,INDIANAPOLIS,MARION,IN,46227,US,,39.7206597,-86.1356003,www.facebook.com/OneBodyMinistriesInc,317-786-4316,Church Office
Bridgeport Central Baptist Church,,,9039 West Washington Street,,Indianapolis,Marion,IN,46231,US,,39.7301894,-86.3206808,,,
Indianapolis Muslim Community Association,,,2846 Cold Spring Road,,Indianapolis,Marion,IN,46222,US,,39.8074691,-86.2042149,,,
The Rock Missionary Baptist Church,"A church with worship services and charitable outreach, including a community meal, food and clothing pantry.",Vary,10302 EAST 38TH STREET,,INDIANAPOLIS,MARION,IN,46235,US,,39.82825,-85.985777,,,
Hawthorne Community Center,,,70 North Mount Street,,Indianapolis,Marion,IN,46222,US,,39.7676962,-86.2017526,www.hawthornecenter.org,,
Hawthorne Community Center - Ohio Street Facility,,,2440 West Ohio Street,,Indianapolis,Marion,IN,46222,US,,39.7685932,-86.2021695,www.hawthornecenter.org,,
Goodwin Community Center,,,3935 Mooresville Road,,Indianapolis,Marion,IN,46221,US,,39.7127286,-86.2277184,www.goodwincenter.org,,
Hawthorne Senior Center At Retreat On Washington,,,2950 Kirkbride Way,,Indianapolis,Marion,IN,46222,US,,39.7688298,-86.2129002,,,
Haughville Branch Library,,,2121 West Michigan Street,,Indianapolis,Marion,IN,46222,US,,39.7743849,-86.1974533,,,
Hunger Inc.,,,1416 East Epler Avenue,,Indianapolis,Marion,IN,46227,US,,39.6872272,-86.135899,www.hungerinc.org,,
Indiana Department of Natural Resources,,,"402 West Washington Street, W160A",,Indianapolis,Marion,IN,46204,US,,39.767889,-86.1658773,www.in.gov/dnr,,
Indiana Department of Natural Resources - Division of Historic Preservation And Archaeology,,,"402 West Washington Street, W274",,Indianapolis,Marion,IN,46204,US,,39.7680056,-86.1652564,www.in.gov/dnr/historic,,
Thatcher Park,,,4649 West Vermont Street,,Indianapolis,Marion,IN,46224,US,,39.771222,-86.238673,www.indygov.org/eGov/City/DPR,,
Indianapolis Department Of Parks And Recreation,,,"200 East Washington Street, Suite 2301",,Indianapolis,Marion,IN,46204,US,,39.7679081,-86.1531573,www.indygov.org,,
Southeastway Park,,,5624 South Carroll Road,,New Palestine,Marion,IN,46163,US,,39.6860757,-85.9572775,www.indygov.org/eGov/City/DPR,,
Christian Park And Family Center,,,4200 English Avenue,,Indianapolis,Marion,IN,46201,US,,39.76094,-86.095197,www.indygov.org/eGov/City/DPR,,
Brookside Park And Family Center,,,3500 Brookside Parkway South Drive,,Indianapolis,Marion,IN,46201,US,,39.7897185,-86.1070623,www.indygov.org/eGov/City/DPR,,
Watkins Park And Family Center,,,2360 Martin Luther King Jr. Drive,,Indianapolis,Marion,IN,46208,US,,39.8003102,-86.1712997,www.indygov.org/eGov/City/DPR,,
Douglass Park And Family Center,,,1616 East 25th Street,,Indianapolis,Marion,IN,46218,US,,39.8036833,-86.131556,www.indygov.org/eGov/City/DPR,,
Garfield Park And Burrello Family Center,,,2345 Pagoda Drive,,Indianapolis,Marion,IN,46203,US,,39.734213,-86.149715,www.indygov.org/eGov/City/DPR,,
Broad Ripple Park And Family Center,,,1550 Broad Ripple Avenue,,Indianapolis,Marion,IN,46220,US,,39.869868,-86.1331122,www.indygov.org/eGov/City/DPR,,
Ellenberger Park,,,5301 East Saint Clair Street,,Indianapolis,Marion,IN,46219,US,,39.776551,-86.0766639,www.indygov.org/eGov/City/DPR,,
Bethel Park And Family Center,,,2850 Bethel Avenue,,Indianapolis,Marion,IN,46203,US,,39.744023,-86.114682,www.indygov.org/eGov/City/DPR,,
Krannert Park,,,605 South High School Road,,Indianapolis,Marion,IN,46241,US,,39.7569774,-86.2667256,www.indygov.org/eGov/City/DPR,,
Northwestway Park,,,5253 West 62nd Street,,Indianapolis,Marion,IN,46254,US,,39.8661339,-86.2502861,www.indygov.org/eGov/City/DPR,,
Riverside Park And Family Center,,,2420 East Riverside Drive,,Indianapolis,Marion,IN,46208,US,,39.8016824,-86.1930541,www.indygov.org/eGov/City/DPR,,
Perry Park,,,451 East Stop 11 Road,,Indianapolis,Marion,IN,46227,US,,39.6506607,-86.1502698,www.indygov.org/eGov/City/DPR,,
Sahm Park,,,68001 East 91st Street,,Indianapolis,Marion,IN,46250,US,,39.919747,-86.0587989,www.indygov.org/eGov/City/DPR,,
Jtv Hill Park,,,1806 North Columbia Avenue,,Indianapolis,Marion,IN,46202,US,,39.7913221,-86.1370944,www.indygov.org/eGov/City/DPR,,
Windsor Village Park And Family Center,,,6510 East 25th Street,,Indianapolis,Marion,IN,46219,US,,39.8042603,-86.0546731,www.indygov.org/eGov/City/DPR,,
Eagle Creek Park,,,7840 West 56th Street,,Indianapolis,Marion,IN,46254,US,,39.854587,-86.300089,www.indygov.org/eGov/City/DPR,,
Holliday Park,,,6363 Spring Mill Road,,Indianapolis,Marion,IN,46260,US,,39.871071,-86.1612339,www.indygov.org/eGov/City/DPR,,
Municipal Gardens Park,,,1831 Lafayette Road,,Indianapolis,Marion,IN,46222,US,,39.7926593,-86.20211,www.indygov.org/eGov/City/DPR,,
Southwestway Park,,,8400 Mann Road,,Indianapolis,Marion,IN,46221,US,,39.65339,-86.240903,www.indygov.org/eGov/City/DPR,,
Glenns Valley Nature Park,,,8015 South Bluff Road,,Indianapolis,Marion,IN,46217,US,,39.645935,-86.193689,www.indygov.org/eGov/City/DPR,,
Indianapolis World Sports Park,,,1313 South Post Road,,Indianapolis,Marion,IN,46239,US,,39.7517136,-86.0066376,www.indygov.org/eGov/City/DPR,,
Pride Park And Family Center,,,1129 South Vandeman Street,,Indianapolis,Marion,IN,46203,US,,39.7515087,-86.1089921,www.indygov.org/eGov/City/DPR,,
Raymond Park - Indy Island,,,8575 East Raymond Street,,Indianapolis,Marion,IN,46239,US,,39.7381187,-86.0158754,www.indygov.org/eGov/City/DPR,,
Rhodius Park And Family Center,,,1720 West Wilkins Street,,Indianapolis,Marion,IN,46221,US,,39.7541541,-86.191199,www.indygov.org/eGov/City/DPR,,
Paul Ruster Park,,,11300 East Prospect Street,,Indianapolis,Marion,IN,46239,US,,39.759042,-85.963343,www.indygov.org/eGov/City/DPR,,
Andrew Ramsey Park,,,310 West 42nd Street,,Indianapolis,Marion,IN,46208,US,,39.8328314,-86.1649295,www.indygov.org/eGov/City/DPR,,
Arsenal Park,,,1400 East 46th Street,,Indianapolis,Marion,IN,46205,US,,39.841536,-86.136191,www.indygov.org/eGov/City/DPR,,
Dan Wakefield Park,,,6051 North Broadway Street,,Indianapolis,Marion,IN,46220,US,,39.8650431,-86.1475806,www.indygov.org/eGov/City/DPR,,
Bowman Park,,,3600 Auburn Road,,Indianapolis,Marion,IN,46224,US,,39.8203163,-86.2438516,www.indygov.org/eGov/City/DPR,,
Carson Park,,,5400 South High School Road,,Indianapolis,Marion,IN,46221,US,,39.685443,-86.2660116,www.indygov.org/eGov/City/DPR,,
Centennial And Groff Park,,,2300 Centennial,,Indianapolis,Marion,IN,46222,US,,39.7981708,-86.2130523,www.indygov.org/eGov/City/DPR,,
Clayton And Lasalle Park,,,401 South LaSalle Street,,Indianapolis,Marion,IN,46201,US,,39.7616783,-86.1094236,www.indygov.org/eGov/City/DPR,,
Grassy Creek Park,,,10510 East 30th Street,,Indianapolis,Marion,IN,46229,US,,39.8133811,-85.9789626,www.indygov.org/eGov/City/DPR,,
Haughville Park,,,500 Belleview Place,,Indianapolis,Marion,IN,46222,US,,39.7717855,-86.2029619,www.indygov.org/eGov/City/DPR,,
Riverwood Park,,,7201 Crittenden Avenue,,Indianapolis,Marion,IN,46240,US,,39.886319,-86.126794,www.indygov.org/eGov/City/DPR,,
Washington Park And Family Center,,,3130 East 30th Street,,Indianapolis,Marion,IN,46218,US,,39.8107904,-86.1129077,www.indygov.org/eGov/City/DPR,,
Wes Montgomery Spray Park,,,3501 North Hawthorne Lane,,Indianapolis,Marion,IN,46218,US,,39.82019,-86.0784648,www.indygov.org/eGov/City/DPR,,
Martin Luther King Park,,,1701 Broadway Street,,Indianapolis,Marion,IN,46202,US,,39.7934674,-86.1459256,www.indygov.org/eGov/City/DPR,,
Willard Park And Pool,,,1901 East Washington,,Indianapolis,Marion,IN,46201,US,,39.7667799,-86.127458,www.indygov.org/eGov/City/DPR,,
Gustafson Park,,,3110 Moller Road,,Indianapolis,Marion,IN,46224,US,,39.810263,-86.257121,www.indygov.org/eGov/City/DPR,,
James Garfield - Indianapolis Public School #31,,,307 Lincoln,,Indianapolis,Marion,IN,46225,US,,39.7449741,-86.1524417,www.indygov.org/eGov/City/DPR,,
Bertha Ross Park,,,3700 North Clifton Street,,Indianapolis,Marion,IN,46208,US,,39.8184509,-86.1805221,www.indygov.org/eGov/City/DPR,,
Stout Field Park,,,3820 West Bradbury Road,,Indianapolis,Marion,IN,46241,US,,39.7322809,-86.2264894,www.indygov.org/eGov/City/DPR,,
Bel-Aire Park,,,2915 South Tibbs Avenue,,Indianapolis,Marion,IN,46208,US,,39.7223671,-86.216759,www.indygov.org/eGov/City/DPR,,
Jake Greene Park,,,1700 North Franklin Road,,Indianapolis,Marion,IN,46219,US,,39.790334,-86.026845,www.indygov.org/eGov/City/DPR,,
Tarkington Park,,,45 West 40th Street,,Indianapolis,Marion,IN,46219,US,,39.827414,-86.158049,www.indygov.org/eGov/City/DPR,,
Wildwood Park,,,8100 Southeastern Avenue,,Indianapolis,Marion,IN,46239,US,,39.715202,-86.027283,www.indygov.org/eGov/City/DPR,,
Brightwoo Library,,,2435 North Sherman Drive,,Indianapolis,Marion,IN,46218,US,,39.8031415,-86.1012926,www.indygov.org/eGov/City/DPR,,
East 38Th Street Library,,,5420 East 38th Street,,Indianapolis,Marion,IN,46218,US,,39.8257366,-86.0764752,www.indygov.org/eGov/City/DPR,,
North United Methodist Church,,,3808 North Meridian Street,,Indianapolis,Marion,IN,46208,US,,39.8254194,-86.1577684,www.northchurchindy.com,,
Northwood Christian Church,,Mon-Thurs 10am-3pm,4550 CENTRAL AVENUE,,INDIANAPOLIS,MARION,IN,46205,US,,39.8390699,-86.1505335,www.indyncc.org,317-283-1352,
Old Bethel United Methodist Church,"A nonprofit faith-based agency providing charitable outreach, including a food pantry.",Tues 9am-6pm; Thurs 9am-4pm; Sat 9am-1pm,8032 EAST 21ST STREET,,INDIANAPOLIS,MARION,IN,46219,US,,39.7959886,-86.0267097,www.oldbethel.org,317-354-8858,
Billie's Food Pantry,,,1754 West Morris Street,,Indianapolis,Marion,IN,46222,US,,39.7512763,-86.1918823,,,
Community Outreach Ministry Eastside,"A network of ten churches supporting the needs of persons and families residing in Warren Township in Marion County, and in Sugar Creek Township and Buck Creek Township in Hancock County.",Vary,116 SOUTH MUESSING STREET,,INDIANAPOLIS,MARION,IN,46229,US,,39.7751348,-85.957405,,317-891-5179,
Garfield Park Baptist Church,,,1061 East Southern Avenue,,Indianapolis,Marion,IN,46203,US,,39.7297119,-86.1399767,www.gpbcindy.org,,
Shepherd Community Center,A Christian-based community center serving the near east side of Indianapolis.,Mon-Fri 8am-5pm,4107 EAST WASHINGTON STREET,,INDIANAPOLIS,MARION,IN,46201,US,,39.767767,-86.097391,www.shepherdcommunity.org,317-375-0203,
Southeastern Church Of Christ,,,6500 Southeastern Avenue,,Indianapolis,Marion,IN,46203,US,,39.7305061,-86.0541553,www.southeastern.org,,
Saint John's Missionary Baptist Church,,Mon-Thurs 9am-4pm,1701 DOCTOR ANDREW J BROWN AVENUE,,INDIANAPOLIS,MARION,IN,46202,US,,39.7906054,-86.1348674,www.saintjohnsindy.net,317-636-5775,Church Office
Jr Dalton,,,3326 West 10th Street,,Indianapolis,Marion,IN,46222,US,,39.7808752,-86.2142687,www.daltonsfoodpantry.com,,
Saint Simon The Apostle Catholic Church,,,8155 Oaklandon Road,,Indianapolis,Marion,IN,46236,US,,39.9050374,-85.954963,,,
SAINT SIMON THE APOSTLE SCHOOL,,,8155 Oaklandon Road,,Indianapolis,Marion,IN,46236,US,,39.9050374,-85.954963,www.saintsimon.org,,
Glory Point,,,2809 East 56th Street,,Indianapolis,Marion,IN,46220,US,,39.8547687,-86.1169291,www.glorypointministries.org,,
Mount Carmel Church,,,9610 EAST 42ND STREET,,INDIANAPOLIS,MARION,IN,46235,US,,39.8343727,-85.9988269,www.mtcarmelindy.org,,
Society Of Saint Vincent De Paul - Indianapolis,,,3001 EAST 30TH STREET,,INDIANAPOLIS,MARION,IN,46218,US,,39.8102419,-86.1142636,www.svdpindy.org,,
Saint Vincent De Paul Distribution Center,,,1201 EAST MARYLAND STREET,,INDIANAPOLIS,MARION,IN,46201,US,Located east of Shelby on Maryland Street.,39.7644741,-86.1374629,www.svdpindy.org,,
Saint Vincent De Paul Boulevard Place Food Pantry,,,4202 BOULEVARD PLACE,,INDIANAPOLIS,MARION,IN,46208,US,,39.832361,-86.1643466,www.svdpindy.org,,
Saint Vincent De Paul Mission 27 Resale,,,132 Leota Street,,Indianapolis,Marion,IN,46202,US,,39.7644444,-86.1375385,www.mission27resale.org/,,
First Baptist Church Of Indianapolis,,,8600 North College Avenue,,Indianapolis,Marion,IN,46240,US,,39.9133292,-86.1471144,www.fbcindy.org,,
Anna's House,,Tues-Thurs 9am-2pm,303 NORTH ELDER AVENUE,,INDIANAPOLIS,MARION,IN,46222,US,,39.7716859,-86.1934911,www.annashousemsc.org,317-631-5504,Administrative
Trinity Christian Methodist Episcopal Church,,,2253 Dr. Andrew J. Brown Avenue,,Indianapolis,Marion,IN,46205,US,,39.7990148,-86.135243,www.trinitycme.org,,
Saint Timothy Episcopal Church,,,2601 THOMPSON ROAD,,INDIANAPOLIS,MARION,IN,46227,US,,39.6930293,-86.1171571,www.sttimothy.indydio.org,317-784-6925,
Life Church at Eagle Creek,,,5901 LAFAYETTE ROAD,,INDIANAPOLIS,MARION,IN,46254,US,,39.8606988,-86.2698987,www.eaglecreekag.org,,
Tabernacle Presbyterian Church,A church with worship services and community outreach.,Mon-Thurs 8:30am-4:30pm; Fri 8:30am-3pm,418 EAST 34TH STREET,,INDIANAPOLIS,MARION,IN,46205,US,,39.81803,-86.150365,www.tabpres.org,317-923-5458,
Ritter Avenue Free Methodist Church,,Mon 5:30pm-7:30pm,1645 NORTH RITTER AVENUE,,INDIANAPOLIS,MARION,IN,46218,US,,39.7899943,-86.0734556,www.ritterchurch.org,317-359-2796,
The Church of Lord Jesus Christ,Provides food to people in need.,Vary,1469 KAPPES STREET,,INDIANAPOLIS,MARION,IN,46221,US,,39.745721,-86.1941068,,,
Saint Christopher Catholic Church,,Mon-Fri 8am-4pm,5301 WEST 16TH STREET,,INDIANAPOLIS,MARION,IN,46224,US,,39.7864284,-86.2511223,www.saintchristopherparish.org,317-241-6314,x 2
"Church of the Living Water, The",,Monthly 3rd Sun 1pm-3pm,133 SOUTH POST ROAD,,INDIANAPOLIS,MARION,IN,46219,US,,39.770022,-86.008365,www.churchofthelivingwaterindy.com/,317-531-1457,
